STARLINK-31475          
1 59310U 24056Q   26068.44160918  .00000323  00000+0  21269-4 0  9991
2 59310  43.0040 228.8918 0001383 247.8741 112.1964 15.27574143111272
COSMOS 2588             
1 64095U 25109A   26068.81179522  .00009169  00000+0  32611-3 0  9998
2 64095  72.9704  73.5401 0005019 308.6780  51.3966 15.29122656 44425
